{
  "type": "FeatureCollection",
  "features": [
    {
      "type": "Feature",
      "properties": {
        "norad_id": 30547,
        "name": "FENGYUN 1C DEB",
        "group": "fengyun-1c-debris",
        "lat": 60.19338743936587,
        "lon": 28.130110929944774,
        "alt_km": 761.4599945606778,
        "timestamp": "2025-12-15T04:01:20.728760+00:00",
        "meta_object_name": "FENGYUN 1C DEB",
        "meta_object_id": "1999-025AKM",
        "meta_epoch": "2025-12-14T03:01:16.383648",
        "meta_mean_motion": 14.37753438,
        "meta_eccentricity": 0.00952057,
        "meta_inclination": 98.9021,
        "meta_ra_of_asc_node": 191.1729,
        "meta_arg_of_pericenter": 213.3159,
        "meta_mean_anomaly": 277.5165,
        "meta_ephemeris_type": 0,
        "meta_classification_type": "U",
        "meta_norad_cat_id": 30547,
        "meta_element_set_no": 999,
        "meta_rev_at_epoch": 98742,
        "meta_bstar": 0.00036438333,
        "meta_mean_motion_dot": 1.106e-05,
        "meta_mean_motion_ddot": 0,
        "tle_line1": "1 30547U 99025AKM 25348.12588407  .00001106  00000+0  36438-3 0  9995",
        "tle_line2": "2 30547  98.9021 191.1729 0095205 213.3159 277.5165 14.37753438987423"
      },
      "geometry": {
        "type": "Point",
        "coordinates": [
          28.130110929944774,
          60.19338743936587
        ]
      }
    },
    {
      "type": "Feature",
      "properties": {
        "norad_id": 30548,
        "name": "FENGYUN 1C DEB",
        "group": "fengyun-1c-debris",
        "lat": -76.27195560237196,
        "lon": -68.78615972485983,
        "alt_km": 776.6063989684553,
        "timestamp": "2025-12-15T04:01:20.728771+00:00",
        "meta_object_name": "FENGYUN 1C DEB",
        "meta_object_id": "1999-025AKN",
        "meta_epoch": "2025-12-10T12:13:24.269952",
        "meta_mean_motion": 14.26844945,
        "meta_eccentricity": 0.00687565,
        "meta_inclination": 99.6812,
        "meta_ra_of_asc_node": 241.7363,
        "meta_arg_of_pericenter": 341.7334,
        "meta_mean_anomaly": 143.2043,
        "meta_ephemeris_type": 0,
        "meta_classification_type": "U",
        "meta_norad_cat_id": 30548,
        "meta_element_set_no": 999,
        "meta_rev_at_epoch": 14063,
        "meta_bstar": 0.003249128,
        "meta_mean_motion_dot": 8.037e-05,
        "meta_mean_motion_ddot": 0,
        "tle_line1": "1 30548U 99025AKN 25344.50930868  .00008037  00000+0  32491-2 0  9990",
        "tle_line2": "2 30548  99.6812 241.7363 0068756 341.7334 143.2043 14.26844945140638"
      },
      "geometry": {
        "type": "Point",
        "coordinates": [
          -68.78615972485983,
          -76.27195560237196
        ]
      }
    },
    {
      "type": "Feature",
      "properties": {
        "norad_id": 30549,
        "name": "FENGYUN 1C DEB",
        "group": "fengyun-1c-debris",
        "lat": -41.16231120568458,
        "lon": -78.06813685087907,
        "alt_km": 719.4517654569727,
        "timestamp": "2025-12-15T04:01:20.728781+00:00",
        "meta_object_name": "FENGYUN 1C DEB",
        "meta_object_id": "1999-025AKP",
        "meta_epoch": "2025-12-03T07:39:14.923872",
        "meta_mean_motion": 13.98584639,
        "meta_eccentricity": 0.0288262,
        "meta_inclination": 98.4796,
        "meta_ra_of_asc_node": 98.4482,
        "meta_arg_of_pericenter": 283.4344,
        "meta_mean_anomaly": 73.4847,
        "meta_ephemeris_type": 0,
        "meta_classification_type": "U",
        "meta_norad_cat_id": 30549,
        "meta_element_set_no": 999,
        "meta_rev_at_epoch": 95162,
        "meta_bstar": 0.0024216,
        "meta_mean_motion_dot": 4.917e-05,
        "meta_mean_motion_ddot": 0,
        "tle_line1": "1 30549U 99025AKP 25337.31892273  .00004917  00000+0  24216-2 0  9998",
        "tle_line2": "2 30549  98.4796  98.4482 0288262 283.4344  73.4847 13.98584639951629"
      },
      "geometry": {
        "type": "Point",
        "coordinates": [
          -78.06813685087907,
          -41.16231120568458
        ]
      }
    },
    {
      "type": "Feature",
      "properties": {
        "norad_id": 30550,
        "name": "FENGYUN 1C DEB",
        "group": "fengyun-1c-debris",
        "lat": 55.6994184432445,
        "lon": -129.06741638065054,
        "alt_km": 936.0962277558092,
        "timestamp": "2025-12-15T04:01:20.728791+00:00",
        "meta_object_name": "FENGYUN 1C DEB",
        "meta_object_id": "1999-025AKQ",
        "meta_epoch": "2025-12-14T04:31:27.130944",
        "meta_mean_motion": 14.02413993,
        "meta_eccentricity": 0.01325916,
        "meta_inclination": 99.0534,
        "meta_ra_of_asc_node": 243.4762,
        "meta_arg_of_pericenter": 293.3428,
        "meta_mean_anomaly": 221.8167,
        "meta_ephemeris_type": 0,
        "meta_classification_type": "U",
        "meta_norad_cat_id": 30550,
        "meta_element_set_no": 999,
        "meta_rev_at_epoch": 95415,
        "meta_bstar": 0.0030922089,
        "meta_mean_motion_dot": 5.089e-05,
        "meta_mean_motion_ddot": 0,
        "tle_line1": "1 30550U 99025AKQ 25348.18850846  .00005089  00000+0  30922-2 0  9999",
        "tle_line2": "2 30550  99.0534 243.4762 0132591 293.3428 221.8167 14.02413993954152"
      },
      "geometry": {
        "type": "Point",
        "coordinates": [
          -129.06741638065054,
          55.6994184432445
        ]
      }
    },
    {
      "type": "Feature",
      "properties": {
        "norad_id": 30552,
        "name": "FENGYUN 1C DEB",
        "group": "fengyun-1c-debris",
        "lat": 17.728655238624018,
        "lon": -56.178438360847146,
        "alt_km": 708.9429969029134,
        "timestamp": "2025-12-15T04:01:20.728802+00:00",
        "meta_object_name": "FENGYUN 1C DEB",
        "meta_object_id": "1999-025AKS",
        "meta_epoch": "2025-12-14T02:31:10.270272",
        "meta_mean_motion": 14.54819297,
        "meta_eccentricity": 0.00148691,
        "meta_inclination": 98.8339,
        "meta_ra_of_asc_node": 119.8497,
        "meta_arg_of_pericenter": 248.1445,
        "meta_mean_anomaly": 111.8169,
        "meta_ephemeris_type": 0,
        "meta_classification_type": "U",
        "meta_norad_cat_id": 30552,
        "meta_element_set_no": 999,
        "meta_rev_at_epoch": 97672,
        "meta_bstar": 0.0033086442,
        "meta_mean_motion_dot": 0.00014191,
        "meta_mean_motion_ddot": 0,
        "tle_line1": "1 30552U 99025AKS 25348.10497998  .00014191  00000+0  33086-2 0  9996",
        "tle_line2": "2 30552  98.8339 119.8497 0014869 248.1445 111.8169 14.54819297976720"
      },
      "geometry": {
        "type": "Point",
        "coordinates": [
          -56.178438360847146,
          17.728655238624018
        ]
      }
    },
    {
      "type": "Feature",
      "properties": {
        "norad_id": 30553,
        "name": "FENGYUN 1C DEB",
        "group": "fengyun-1c-debris",
        "lat": 11.281970749652366,
        "lon": 82.51691231472596,
        "alt_km": 664.4622862485585,
        "timestamp": "2025-12-15T04:01:20.728812+00:00",
        "meta_object_name": "FENGYUN 1C DEB",
        "meta_object_id": "1999-025AKT",
        "meta_epoch": "2025-12-14T05:08:13.369632",
        "meta_mean_motion": 14.72364376,
        "meta_eccentricity": 0.00204655,
        "meta_inclination": 99.129,
        "meta_ra_of_asc_node": 83.2854,
        "meta_arg_of_pericenter": 146.8811,
        "meta_mean_anomaly": 213.3679,
        "meta_ephemeris_type": 0,
        "meta_classification_type": "U",
        "meta_norad_cat_id": 30553,
        "meta_element_set_no": 999,
        "meta_rev_at_epoch": 98495,
        "meta_bstar": 0.0037312013,
        "meta_mean_motion_dot": 0.00023712,
        "meta_mean_motion_ddot": 0,
        "tle_line1": "1 30553U 99025AKT 25348.21404363  .00023712  00000+0  37312-2 0  9998",
        "tle_line2": "2 30553  99.1290  83.2854 0020465 146.8811 213.3679 14.72364376984953"
      },
      "geometry": {
        "type": "Point",
        "coordinates": [
          82.51691231472596,
          11.281970749652366
        ]
      }
    },
    {
      "type": "Feature",
      "properties": {
        "norad_id": 30555,
        "name": "FENGYUN 1C DEB",
        "group": "fengyun-1c-debris",
        "lat": 67.17014868269258,
        "lon": 21.19245449219475,
        "alt_km": 845.5337353562945,
        "timestamp": "2025-12-15T04:01:20.728822+00:00",
        "meta_object_name": "FENGYUN 1C DEB",
        "meta_object_id": "1999-025AKV",
        "meta_epoch": "2025-12-14T02:38:55.480704",
        "meta_mean_motion": 14.20816323,
        "meta_eccentricity": 0.00425939,
        "meta_inclination": 98.7577,
        "meta_ra_of_asc_node": 41.6249,
        "meta_arg_of_pericenter": 267.4834,
        "meta_mean_anomaly": 156.5895,
        "meta_ephemeris_type": 0,
        "meta_classification_type": "U",
        "meta_norad_cat_id": 30555,
        "meta_element_set_no": 999,
        "meta_rev_at_epoch": 96955,
        "meta_bstar": 0.0015857705,
        "meta_mean_motion_dot": 3.414e-05,
        "meta_mean_motion_ddot": 0,
        "tle_line1": "1 30555U 99025AKV 25348.11036436  .00003414  00000+0  15858-2 0  9999",
        "tle_line2": "2 30555  98.7577  41.6249 0042593 267.4834 156.5895 14.20816323969559"
      },
      "geometry": {
        "type": "Point",
        "coordinates": [
          21.19245449219475,
          67.17014868269258
        ]
      }
    }
  ]
}